GLOBALSTAR M023 [+]     
1 25621U 99004A   24037.56889760  .00000003  00000+0  59538-3 0  9998
2 25621  52.0104 125.5838 0010975 109.2628 356.4833 12.62446869153001
GLOBALSTAR M040 [-]     
1 25622U 99004B   24037.59046250 -.00000096  00000+0  41122-4 0  9995
2 25622  51.9913 128.9459 0001000  75.6376  33.2504 12.61965609152550
GLOBALSTAR M036 [-]     
1 25623U 99004C   24037.37862792 -.00000063  00000+0  28576-3 0  9990
2 25623  51.9963 109.7526 0011899 177.7842 262.5318 11.86559938120002
GLOBALSTAR M038 [-]     
1 25624U 99004D   24037.47733861 -.00000073  00000+0  18560-3 0  9999
2 25624  51.9978  61.9946 0002091 104.3088  43.7916 12.32492578141123
GLOBALSTAR M022 [-]     
1 25649U 99012A   24037.40378274 -.00000050  00000+0  44679-3 0  9996
2 25649  52.0014 201.3576 0001559 257.2164 116.9718 12.02477567116610
GLOBALSTAR M041 [-]     
1 25650U 99012B   24037.47807456 -.00000033  00000+0  67658-3 0  9997
2 25650  52.0024  67.4637 0002266  63.1492 296.9575 11.96656775118812
GLOBALSTAR M046 [-]     
1 25651U 99012C   24037.55305932 -.00000197  00000+0 -11908-2 0  9997
2 25651  52.0041 169.2129 0001774   9.5642  71.6155 12.09383891123575
GLOBALSTAR M037 [+]     
1 25652U 99012D   24037.06416102 -.00000035  00000+0  38310-3 0  9993
2 25652  51.9988 257.9326 0002126 136.8316  28.2981 12.62395471148480
